INTELSAT 23 (IS-23)     
1 38867U 12057A   26183.21562853 -.00000274  00000+0  00000+0 0  9991
2 38867   0.0115 358.8792 0000297 208.3736  97.6196  1.00267457 50106
FM-6                    
1 39360U 13058A   26183.20310895 -.00000005  00000+0  00000+0 0  9990
2 39360   0.0183  46.3710 0001928 133.4968  57.1801  1.00271311 46222
INTELSAT 30 (IS-30)     
1 40271U 14062A   26183.20735564 -.00000140  00000+0  00000+0 0  9993
2 40271   0.0231  52.2442 0001369 350.4281 217.1684  1.00271569  6942
DIRECTV 14              
1 40333U 14078B   26182.49360291 -.00000115  00000+0  00000+0 0  9992
2 40333   0.0108  16.3305 0000388  24.0591 317.6198  1.00273352 42185
DIRECTV 15              
1 40663U 15026A   26183.16850328 -.00000092  00000+0  00000+0 0  9996
2 40663   0.0164  62.6360 0000503 344.3138 191.0383  1.00269091 40613
SKY MEXICO-1            
1 40664U 15026B   26183.21051517 -.00000224  00000+0  00000+0 0  9993
2 40664   0.0185  33.3771 0002649  86.5173 157.3367  1.00270379 40602
INTELSAT 34 (IS-34)     
1 40874U 15039A   26183.21519519 -.00000275  00000+0  00000+0 0  9997
2 40874   0.0113   8.3807 0000490  27.6706 266.1737  1.00269869 39787
INTELSAT 31 (IS-31)     
1 41581U 16035A   26182.55806885 -.00000140  00000+0  00000+0 0  9992
2 41581   0.0162 287.8314 0000652 350.1203 107.5034  1.00270123 36825
INTELSAT 36 (IS-36)     
1 41747U 16053A   26183.01418663 -.00000014  00000+0  00000+0 0  9991
2 41747   0.0111  21.2609 0002034 326.7662   5.6376  1.00270634 36109
INTELSAT 32E (IS-32E)   
1 41945U 17007B   26183.00360649  .00000000  00000+0  00000+0 0  9994
2 41945   0.0229  30.0875 0000343 311.5669 256.5154  1.00267253 34373
INTELSAT 35E (IS-35E)   
1 42818U 17041A   26183.07808181  .00000000  00000+0  00000+0 0  9997
2 42818   0.0219  34.3702 0002285  74.0596 165.2902  1.00266707 32968
INTELSAT 37E (IS-37E)   
1 42950U 17059A   26183.22256189  .00000000  00000+0  00000+0 0  9995
2 42950   0.0250  42.5837 0002852  60.1510 239.6539  1.00270731 32214
AZERSPACE 2 (IS-38)     
1 43632U 18074A   26183.16381837  .00000000  00000+0  00000+0 0  9993
2 43632   0.0257  39.1491 0001606  68.5001 276.6396  1.00270488 28597
HORIZONS-3E             
1 43633U 18074B   26182.68930755 -.00000020  00000+0  00000+0 0  9992
2 43633   0.0225 196.8409 0000564  90.6373  49.4249  1.00271639 28483
AT&T T-16               
1 44333U 19034A   26183.16850328 -.00000105  00000+0  00000+0 0  9992
2 44333   0.0166  63.2960 0000373 293.0536 243.6610  1.00272686 25785
INTELSAT 39 (IS-39)     
1 44476U 19049B   26183.23842197  .00000000  00000+0  00000+0 0  9992
2 44476   0.0215  26.7384 0000953 317.1289  84.1987  1.00269538 25270
GALAXY 30 (G-30)        
1 46114U 20056C   26182.98755284  .00000047  00000+0  00000+0 0  9995
2 46114   0.0143  48.5564 0002214  51.2107  50.7794  1.00273016 21446
GALAXY 33 (G-33)        
1 54026U 22128A   26183.18656149  .00000089  00000+0  00000+0 0  9997
2 54026   0.0111  39.7342 0002021  60.0293 114.6385  1.00273224 13895
GALAXY 34 (G-34)        
1 54027U 22128B   26182.70161427  .00000000  00000+0  00000+0 0  9998
2 54027   0.0274  26.9306 0001958  83.3094 293.1069  1.00275358 14050
GALAXY 31 (G-31)        
1 54243U 22153A   26183.20215561  .00000024  00000+0  00000+0 0  9997
2 54243   0.0142  72.4109 0001568  26.2757 133.3254  1.00272078  7284
GALAXY 32 (G-32)        
1 54244U 22153B   26182.95434991 -.00000164  00000+0  00000+0 0  9995
2 54244   0.0081  21.1215 0001999  29.7071 121.7426  1.00272545 13290
GALAXY 35 (G-35)        
1 54741U 22170A   26183.20770230 -.00000152  00000+0  00000+0 0  9991
2 54741   0.0173  58.0567 0002309  43.5268 160.3285  1.00273017 13041
GALAXY 36 (G-36)        
1 54742U 22170B   26183.06593918 -.00000175  00000+0  00000+0 0  9997
2 54742   0.0022 354.0475 0002943  98.7980 122.0009  1.00272721 12925
GALAXY 37 (G-37)        
1 57493U 23112A   26183.18656149  .00000059  00000+0  00000+0 0  9999
2 57493   0.0179 346.2885 0002099 115.7886 118.3124  1.00271545 10690
